OBJECT_NAME,OBJECT_ID,EPOCH,MEAN_MOTION,ECCENTRICITY,INCLINATION,RA_OF_ASC_NODE,ARG_OF_PERICENTER,MEAN_ANOMALY,EPHEMERIS_TYPE,CLASSIFICATION_TYPE,NORAD_CAT_ID,ELEMENT_SET_NO,REV_AT_EPOCH,BSTAR,MEAN_MOTION_DOT,MEAN_MOTION_DDOT
GAOFEN-11 01,2018-063A,2026-07-07T15:06:24.488640,15.55913401,.00022996,97.1274,255.4582,236.8533,123.2502,0,U,43585,999,44352,.24537976E-3,.16925E-3,0
ICESAT-2,2018-070A,2026-07-07T14:01:52.206528,15.28258570,.00059359,92.0083,296.4911,81.1826,279.0095,0,U,43613,999,43557,.24461612E-3,.6735E-4,0
HYSIS,2018-096A,2026-07-07T13:55:45.316704,14.78662085,.00018558,97.9826,255.1681,86.3502,273.7921,0,U,43719,999,41043,.14661612E-3,.1023E-4,0
KAZSTSAT,2018-099AB,2026-07-07T01:04:18.281856,14.99939036,.00079496,97.4311,219.0757,11.5065,348.6339,0,U,43783,999,41428,.13466348E-3,.1617E-4,0
SAUDISAT 5A,2018-102A,2026-07-07T14:16:33.102048,15.28268223,.00109964,97.3055,249.7838,67.4563,292.7839,0,U,43831,999,41879,.14222989E-3,.3849E-4,0
SAUDISAT 5B,2018-102C,2026-07-07T14:38:51.076032,15.28514154,.00117503,97.3164,252.9057,68.9613,291.2883,0,U,43833,999,41891,.13186209E-3,.3591E-4,0
GAOFEN-10R,2019-066A,2026-07-07T14:20:03.876576,14.83045865,.00071366,98.0505,142.3257,72.6520,287.5473,0,U,44622,999,36540,.12612215E-3,.971E-5,0
CARTOSAT-3,2019-081A,2026-07-07T13:48:01.899072,15.19295561,.00133506,97.4292,250.1136,84.8326,275.4432,0,U,44804,999,36656,.31320673E-3,.6558E-4,0
GAOFEN-12 01,2019-082A,2026-07-07T15:01:54.772032,14.80475386,.00013837,97.8105,194.4665,52.6730,307.4609,0,U,44819,999,35711,.47176539E-4,.31E-5,0
CSG-1,2019-092A,2026-07-07T15:24:34.689024,14.82147016,.00014887,97.8893,11.9488,90.7552,269.3832,0,U,44873,999,35450,.51728189E-4,.359E-5,0
NEMO-HD,2020-061F,2026-07-07T15:55:44.879232,15.45026458,.00012136,97.1907,250.4140,78.6222,281.5164,0,U,46277,999,32514,.15436973E-3,.7197E-4,0
SENTINEL-6A,2020-086A,2026-07-07T03:37:26.312736,12.80930150,.00078351,66.0416,93.5889,270.0365,89.9753,0,U,46984,999,26288,.66481591E-4,-.46E-6,0
CAS500-1,2021-022A,2026-07-07T14:24:21.611232,15.20125532,.00043173,97.3874,83.4381,195.3302,164.7803,0,U,47932,999,29386,.23298371E-3,.497E-4,0
GAOFEN-12 02,2021-026A,2026-07-07T15:21:00.277920,14.80312141,.0005305,97.9929,186.7372,152.5216,207.6277,0,U,48079,999,28478,.45033301E-4,.29E-5,0
PLEIADES NEO 3,2021-034A,2026-07-07T15:33:03.290400,14.81672866,.00013465,97.8935,263.1205,91.7324,268.4044,0,U,48268,999,28068,-.35976916E-4,-.335E-5,0
PLEIADES NEO 4,2021-073E,2026-07-07T09:52:40.179360,14.81677754,.00012925,97.8931,262.8836,91.3078,268.8283,0,U,49070,999,26436,.6310521E-5,-.2E-7,0
LANDSAT 9,2021-088A,2026-07-06T16:46:13.961280,14.57111056,.00011665,98.2273,257.6394,89.6982,270.4350,0,U,49260,999,25384,.81232213E-4,.321E-5,0
CSG-2,2022-008A,2026-07-07T14:35:54.691296,14.82160640,.00015877,97.8895,11.9099,86.4363,273.7031,0,U,51444,999,23961,.10595114E-3,.791E-5,0
GAOFEN-12 03,2022-069A,2026-07-07T14:31:49.952928,14.80068764,.00025095,97.8250,75.9583,81.0799,279.0697,0,U,52912,999,21763,.86906375E-4,.608E-5,0
SWOT,2022-173A,2026-07-07T13:36:35.051904,14.00171864,.00002838,77.6104,7.7963,77.5450,282.5733,0,U,54754,999,18200,-.12389214E-4,-.21E-6,0
GAOFEN-12 04,2023-123A,2026-07-07T14:57:59.879808,14.79765682,.00038226,97.9108,106.3381,65.6572,294.5038,0,U,57654,999,15565,.11226698E-3,.793E-5,0
PARS 1,2024-039Q,2026-07-07T15:20:15.456192,15.46171988,.00106882,97.4835,170.2098,51.3564,308.8640,0,U,59065,999,13180,.16212091E-3,.7876E-4,0
RESURS-P 4,2024-061A,2026-07-07T15:20:44.136672,15.32250402,.00032047,97.2755,136.1837,100.8124,259.3479,0,U,59371,999,12689,.76681202E-4,.2312E-4,0
LEGION 1,2024-081A,2026-07-07T13:07:13.689408,15.16810209,.00078276,97.5009,266.1875,301.4247,58.6221,0,U,59625,999,12062,.14183127E-3,.2721E-4,0
LEGION 2,2024-081B,2026-07-07T12:15:49.514400,15.16788255,.00098656,97.5010,266.2492,263.9048,96.1061,0,U,59626,999,12062,.14739009E-3,.283E-4,0
ALOS-4 (DAICHI-4),2024-123A,2026-07-07T14:00:27.557856,14.79467375,.00016153,97.9220,285.4668,98.0373,262.1022,0,U,60182,999,10889,.19318482E-3,.1391E-4,0
LEGION 3,2024-146A,2026-07-07T13:25:10.308576,15.15623478,.00088018,45.0021,281.3173,294.2505,65.7454,0,U,60452,999,10511,.13483077E-3,.2344E-4,0
LEGION 4,2024-146B,2026-07-07T13:26:12.034464,15.16200636,.00115395,45.0022,13.1919,64.0130,296.1936,0,U,60453,999,10396,.15612391E-3,.2805E-4,0
SENTINEL-2C,2024-157A,2026-07-07T04:08:27.721248,14.30814111,.00009392,98.5685,262.6713,95.7763,264.3527,0,U,60989,999,9584,.47102957E-4,.8E-6,0
IONOSFERA-M 1,2024-199A,2026-07-07T14:07:07.818816,14.22758001,.00022119,98.7147,61.5426,82.7049,277.4381,0,U,61735,999,13060,.31720351E-4,.27E-6,0
