GAOFEN-11 01            
1 43585U 18063A   26188.62945010  .00016925  00000+0  24538-3 0  9992
2 43585  97.1274 255.4582 0002299 236.8533 123.2502 15.55913401443527
ICESAT-2                
1 43613U 18070A   26188.58463202  .00006735  00000+0  24462-3 0  9999
2 43613  92.0083 296.4911 0005935  81.1826 279.0095 15.28258570435570
HYSIS                   
1 43719U 18096A   26188.58038561  .00001023  00000+0  14662-3 0  9996
2 43719  97.9826 255.1681 0001855  86.3502 273.7921 14.78662085410438
KAZSTSAT                
1 43783U 18099AB  26188.04465604  .00001617  00000+0  13466-3 0  9993
2 43783  97.4311 219.0757 0007949  11.5065 348.6339 14.99939036414288
SAUDISAT 5A             
1 43831U 18102A   26188.59482757  .00003849  00000+0  14223-3 0  9991
2 43831  97.3055 249.7838 0010996  67.4563 292.7839 15.28268223418795
SAUDISAT 5B             
1 43833U 18102C   26188.61031338  .00003591  00000+0  13186-3 0  9992
2 43833  97.3164 252.9057 0011750  68.9613 291.2883 15.28514154418912
GAOFEN-10R              
1 44622U 19066A   26188.59726709  .00000971  00000+0  12612-3 0  9991
2 44622  98.0505 142.3257 0007136  72.6520 287.5473 14.83045865365408
CARTOSAT-3              
1 44804U 19081A   26188.57502198  .00006558  00000+0  31321-3 0  9997
2 44804  97.4292 250.1136 0013350  84.8326 275.4432 15.19295561366563
GAOFEN-12 01            
1 44819U 19082A   26188.62632838  .00000310  00000+0  47177-4 0  9992
2 44819  97.8105 194.4665 0001383  52.6730 307.4609 14.80475386357113
CSG-1                   
1 44873U 19092A   26188.64206816  .00000359  00000+0  51728-4 0  9998
2 44873  97.8893  11.9488 0001488  90.7552 269.3832 14.82147016354506
NEMO-HD                 
1 46277U 20061F   26188.66371388  .00007197  00000+0  15437-3 0  9998
2 46277  97.1907 250.4140 0001213  78.6222 281.5164 15.45026458325143
SENTINEL-6A             
1 46984U 20086A   26188.15099899 -.00000046  00000+0  66482-4 0  9992
2 46984  66.0416  93.5889 0007835 270.0365  89.9753 12.80930150262880
CAS500-1                
1 47932U 21022A   26188.60025013  .00004970  00000+0  23298-3 0  9990
2 47932  97.3874  83.4381 0004317 195.3302 164.7803 15.20125532293863
GAOFEN-12 02            
1 48079U 21026A   26188.63958655  .00000290  00000+0  45033-4 0  9990
2 48079  97.9929 186.7372 0005305 152.5216 207.6277 14.80312141284789
PLEIADES NEO 3          
1 48268U 21034A   26188.64795475 -.00000335  00000+0 -35977-4 0  9997
2 48268  97.8935 263.1205 0001346  91.7324 268.4044 14.81672866280681
PLEIADES NEO 4          
1 49070U 21073E   26188.41157615 -.00000002  00000+0  63105-5 0  9990
2 49070  97.8931 262.8836 0001292  91.3078 268.8283 14.81677754264364
LANDSAT 9               
1 49260U 21088A   26187.69877270  .00000321  00000+0  81232-4 0  9995
2 49260  98.2273 257.6394 0001166  89.6982 270.4350 14.57111056253840
CSG-2                   
1 51444U 22008A   26188.60827189  .00000791  00000+0  10595-3 0  9995
2 51444  97.8895  11.9099 0001587  86.4363 273.7031 14.82160640239612
GAOFEN-12 03            
1 52912U 22069A   26188.60543927  .00000608  00000+0  86906-4 0  9995
2 52912  97.8250  75.9583 0002509  81.0799 279.0697 14.80068764217632
SWOT                    
1 54754U 22173A   26188.56707236 -.00000021  00000+0 -12389-4 0  9992
2 54754  77.6104   7.7963 0000283  77.5450 282.5733 14.00171864182008
GAOFEN-12 04            
1 57654U 23123A   26188.62360972  .00000793  00000+0  11227-3 0  9992
2 57654  97.9108 106.3381 0003822  65.6572 294.5038 14.79765682155659
PARS 1                  
1 59065U 24039Q   26188.63906778  .00007876  00000+0  16212-3 0  9996
2 59065  97.4835 170.2098 0010688  51.3564 308.8640 15.46171988131809
RESURS-P 4              
1 59371U 24061A   26188.63939973  .00002312  00000+0  76681-4 0  9991
2 59371  97.2755 136.1837 0003204 100.8124 259.3479 15.32250402126895
LEGION 1                
1 59625U 24081A   26188.54668622  .00002721  00000+0  14183-3 0  9997
2 59625  97.5009 266.1875 0007827 301.4247  58.6221 15.16810209120627
LEGION 2                
1 59626U 24081B   26188.51098975  .00002830  00000+0  14739-3 0  9991
2 59626  97.5010 266.2492 0009865 263.9048  96.1061 15.16788255120625
ALOS-4 (DAICHI-4)       
1 60182U 24123A   26188.58365229  .00001391  00000+0  19318-3 0  9992
2 60182  97.9220 285.4668 0001615  98.0373 262.1022 14.79467375108894
LEGION 3                
1 60452U 24146A   26188.55914709  .00002344  00000+0  13483-3 0  9993
2 60452  45.0021 281.3173 0008801 294.2505  65.7454 15.15623478105111
LEGION 4                
1 60453U 24146B   26188.55986151  .00002805  00000+0  15612-3 0  9992
2 60453  45.0022  13.1919 0011539  64.0130 296.1936 15.16200636103965
SENTINEL-2C             
1 60989U 24157A   26188.17254307  .00000080  00000+0  47103-4 0  9991
2 60989  98.5685 262.6713 0000939  95.7763 264.3527 14.30814111 95849
IONOSFERA-M 1           
1 61735U 24199A   26188.58828494  .00000027  00000+0  31720-4 0  9995
2 61735  98.7147  61.5426 0002211  82.7049 277.4381 14.22758001130602
